{
  "norad_id": 60998,
  "name": "STARLINK-11287 [DTC]",
  "history": [
    {
      "epoch": "2026-03-28T12:58:32.913408Z",
      "apogee_km": 360.4852543663401,
      "perigee_km": 358.9278692054704,
      "latitude_deg": 5.771352573109082e-05,
      "longitude_deg": 167.8645704571738,
      "height_km": 360.1003551325838,
      "semi_major_axis_km": 6737.843561785905,
      "eccentricity": 0.00011557,
      "inclination_deg": 53.1604,
      "raan_deg": 188.4613,
      "arg_perigee_deg": 48.0806,
      "mean_anomaly_deg": 312.0311,
      "mean_motion_rev_day": 15.69717055
    },
    {
      "epoch": "2026-03-28T23:40:20.568288Z",
      "apogee_km": 360.49593224774344,
      "perigee_km": 359.0216806452936,
      "latitude_deg": 1.250813996558516e-05,
      "longitude_deg": 4.781882054132551,
      "height_km": 360.3799588655012,
      "semi_major_axis_km": 6737.895806446519,
      "eccentricity": 0.0001094,
      "inclination_deg": 53.1591,
      "raan_deg": 186.2665,
      "arg_perigee_deg": 66.618,
      "mean_anomaly_deg": 293.4953,
      "mean_motion_rev_day": 15.69698798
    },
    {
      "epoch": "2026-03-29T05:47:05.018784Z",
      "apogee_km": 360.6348968532893,
      "perigee_km": 358.89166729231056,
      "latitude_deg": -5.545826143969992e-06,
      "longitude_deg": -88.40936686514337,
      "height_km": 360.37847455358775,
      "semi_major_axis_km": 6737.900282072799,
      "eccentricity": 0.00012936,
      "inclination_deg": 53.16,
      "raan_deg": 185.0115,
      "arg_perigee_deg": 69.9859,
      "mean_anomaly_deg": 290.1298,
      "mean_motion_rev_day": 15.69697234
    }
  ]
}